{"type": "Feature", "properties": {"id": "caspian", "name": "Mar Caspio"}, "geometry": {"type": "Polygon", "coordinates": [[[54.59995, 41.19171], [54.40194, 41.30822], [54.29394, 41.34706], [54.18954, 41.40785], [54.14634, 41.46019], [54.08874, 41.47539], [54.05994, 41.50241], [54.03114, 41.56995], [54.00954, 41.76414], [53.93394, 41.88403], [53.90154, 41.89247], [53.91594, 42.02418], [53.89794, 42.07821], [53.81874, 42.12381], [53.76834, 42.13563], [53.72514, 42.12549], [53.68194, 42.14407], [53.37593, 42.10523], [53.29673, 42.07821], [53.22113, 42.08159], [53.16353, 42.10354], [53.12033, 42.09003], [52.93673, 41.95495], [52.82153, 41.76414], [52.78193, 41.7253], [52.76753, 41.67633], [52.78553, 41.66282], [52.83233, 41.70166], [52.87913, 41.69828], [52.91513, 41.67464], [52.89713, 41.62905], [52.90073, 41.56658], [52.81433, 41.38927], [52.84313, 41.24068], [52.90793, 41.12248], [52.87553, 41.04987], [52.84673, 41.07689], [52.85033, 41.16301], [52.81433, 41.22211], [52.81433, 41.26263], [52.76033, 41.37745], [52.72433, 41.39434], [52.71713, 41.42642], [52.69193, 41.445], [52.64513, 41.45851], [52.56233, 41.51929], [52.55873, 41.54462], [52.58753, 41.58346], [52.59473, 41.64087], [52.55873, 41.68815], [52.43632, 41.74894], [52.49032, 41.9026], [52.47592, 41.96339], [52.43272, 42.00054], [52.43632, 42.05795], [52.40032, 42.09172], [52.43632, 42.17953], [52.48312, 42.20148], [52.59473, 42.33488], [52.60193, 42.38891], [52.64153, 42.42775], [52.67753, 42.5392], [52.66313, 42.61349], [52.61993, 42.67766], [52.57673, 42.69792], [52.56233, 42.74182], [52.57313, 42.75027], [52.60193, 42.69792], [52.66313, 42.66753], [52.70993, 42.58479], [52.74593, 42.6574], [52.71353, 42.73], [52.63073, 42.75027], [52.62353, 42.77391], [52.57313, 42.79924], [52.47232, 42.82625], [52.34632, 42.82963], [52.29952, 42.79079], [52.16992, 42.88704], [52.05832, 42.8786], [51.93232, 42.8347], [51.91072, 42.84314], [51.83872, 42.90899], [51.77032, 43.03057], [51.71272, 43.09136], [51.67672, 43.0998], [51.68032, 43.1589], [51.65152, 43.19099], [51.53992, 43.17579], [51.50752, 43.15384], [51.46071, 43.16903], [51.27711, 43.15384], [51.26271, 43.16397], [51.31311, 43.31088], [51.32031, 43.44258], [51.27711, 43.51688], [51.27351, 43.5591], [51.21951, 43.59287], [51.20511, 43.62495], [51.15471, 43.62495], [51.11511, 43.66041], [51.02151, 43.80056], [50.98911, 43.87655], [50.99271, 43.90863], [50.90271, 44.01164], [50.85951, 44.02514], [50.84871, 44.18894], [50.78031, 44.23622], [50.69751, 44.26492], [50.2979, 44.32571], [50.2547, 44.35104], [50.2295, 44.39156], [50.2259, 44.56718], [50.2367, 44.58575], [50.2547, 44.55705], [50.2691, 44.57055], [50.2979, 44.65498], [50.3123, 44.66174], [50.4995, 44.62628], [50.61831, 44.63979], [50.62911, 44.62459], [50.72991, 44.62121], [50.75511, 44.60433], [50.78391, 44.63303], [50.87391, 44.62965], [50.96031, 44.57055], [51.00351, 44.56549], [50.99271, 44.54523], [51.00711, 44.52834], [51.11511, 44.48781], [51.20151, 44.49119], [51.29151, 44.55198], [51.36711, 44.56042], [51.38151, 44.56042], [51.37431, 44.52834], [51.47151, 44.53172], [51.56152, 44.51145], [51.57232, 44.52327], [51.55432, 44.55029], [51.43911, 44.60939], [51.32031, 44.59588], [51.29151, 44.61446], [51.23391, 44.71915], [51.09711, 44.79682], [51.05031, 44.80358], [50.96391, 44.86437], [50.96391, 44.90658], [50.98911, 44.9184], [50.99271, 44.94373], [50.95311, 44.95217], [50.96031, 44.97919], [51.06471, 44.99776], [51.15111, 45.05349], [51.19791, 45.06531], [51.27351, 45.02478], [51.28071, 45.03829], [51.24471, 45.10077], [51.25911, 45.13454], [51.24471, 45.16156], [51.30951, 45.25781], [51.39591, 45.3321], [51.41391, 45.38951], [51.45711, 45.3473], [51.49311, 45.33548], [51.59392, 45.34392], [51.65872, 45.38614], [51.69112, 45.38783], [51.75952, 45.45706], [51.79192, 45.40471], [51.89272, 45.3912], [51.93952, 45.36756], [52.00792, 45.39458], [52.09432, 45.38107], [52.51913, 45.40809], [52.90793, 45.31353], [53.00153, 45.32028], [53.10953, 45.30002], [53.26073, 45.34223], [53.26433, 45.36081], [53.24633, 45.36925], [53.14193, 45.38445], [53.11313, 45.4064], [53.03393, 45.41822], [52.87553, 45.47057], [52.85033, 45.49421], [52.75673, 45.51616], [52.73153, 45.55331], [52.74593, 45.63942], [52.79273, 45.66306], [52.85753, 45.76438], [52.91873, 45.79646], [53.04113, 45.93661], [53.08793, 46.02104], [53.08073, 46.06157], [53.11313, 46.09703], [53.15633, 46.27264], [53.15633, 46.34187], [53.12753, 46.39422], [53.03393, 46.4702], [53.10233, 46.44319], [53.07713, 46.47527], [53.08073, 46.51242], [53.01953, 46.47865], [52.99793, 46.4854], [53.00873, 46.53099], [53.04113, 46.57321], [53.04113, 46.55463], [53.07353, 46.5445], [53.10953, 46.62218], [53.11673, 46.60191], [53.14193, 46.63568], [53.19593, 46.63906], [53.20313, 46.65595], [53.20673, 46.69478], [53.18873, 46.71842], [53.10593, 46.737], [53.08433, 46.85351], [53.05193, 46.8991], [52.99073, 46.89572], [52.91873, 46.9582], [52.78193, 46.94301], [52.61633, 46.94976], [52.53713, 46.9886], [52.45432, 47.00042], [52.42552, 46.99029], [52.41832, 46.94469], [52.35712, 46.89404], [52.26352, 46.8704], [52.18792, 46.8839], [52.18432, 46.86195], [52.22392, 46.84844], [52.24552, 46.80961], [52.11232, 46.81298], [52.00072, 46.89066], [52.01872, 46.93625], [52.00072, 46.94132], [51.94312, 46.88053], [51.85312, 46.89572], [51.89632, 46.93119], [51.87472, 46.93625], [51.80632, 46.90923], [51.74512, 46.92612], [51.67672, 46.97847], [51.69472, 47.02068], [51.68032, 47.05783], [51.63712, 47.04939], [51.61192, 46.9886], [51.59392, 46.98691], [51.54712, 47.03925], [51.50392, 47.06121], [51.21231, 47.12031], [51.10431, 47.07978], [50.97111, 47.05952], [50.90631, 47.01899], [50.84511, 47.03757], [50.84511, 47.01899], [50.74071, 46.90586], [50.72991, 46.92274], [50.75151, 46.97509], [50.67951, 46.93287], [50.61471, 46.93625], [50.60031, 46.85182], [50.56791, 46.82987], [50.54991, 46.83494], [50.57871, 46.87884], [50.50311, 46.86364], [50.4311, 46.89741], [50.3843, 46.81805], [50.3663, 46.80623], [50.3735, 46.8552], [50.3411, 46.81298], [50.2979, 46.80116], [50.2295, 46.72518], [50.2115, 46.72856], [50.2223, 46.76064], [50.2115, 46.7657], [50.1683, 46.74882], [50.0351, 46.63568], [49.9631, 46.62893], [49.8839, 46.57658], [49.8407, 46.57996], [49.8191, 46.54112], [49.7723, 46.56645], [49.7579, 46.53099], [49.7039, 46.5597], [49.7039, 46.51917], [49.6211, 46.58334], [49.6283, 46.51917], [49.6067, 46.52762], [49.5779, 46.49891], [49.5563, 46.53437], [49.46989, 46.57321], [49.5023, 46.49891], [49.49149, 46.49891], [49.45549, 46.50904], [49.46269, 46.53268], [49.43029, 46.55463], [49.42309, 46.53944], [49.35469, 46.55294], [49.30429, 46.5884], [49.31149, 46.56139], [49.37989, 46.51073], [49.39429, 46.47865], [49.33309, 46.4854], [49.27909, 46.52593], [49.30429, 46.46683], [49.36549, 46.42968], [49.36549, 46.38915], [49.25029, 46.4702], [49.22509, 46.4702], [49.29349, 46.39591], [49.16749, 46.40941], [49.21429, 46.38071], [49.22509, 46.33343], [49.29709, 46.27433], [49.29709, 46.25238], [49.16029, 46.29121], [49.14229, 46.30979], [49.16749, 46.32836], [49.14949, 46.33512], [49.07749, 46.28615], [49.05949, 46.25238], [49.10629, 46.24056], [49.11349, 46.15106], [49.07029, 46.19159], [49.04149, 46.19665], [48.93349, 46.14262], [48.95509, 46.10716], [48.93349, 46.08521], [48.89749, 46.14769], [48.87949, 46.15613], [48.88669, 46.10716], [48.83989, 46.14937], [48.87589, 46.07845], [48.85789, 46.07339], [48.81829, 46.12405], [48.79309, 46.12742], [48.82909, 46.0869], [48.81829, 46.0565], [48.78229, 46.09703], [48.71389, 46.12911], [48.70309, 46.1156], [48.67789, 46.12067], [48.66349, 46.09027], [48.62749, 46.0869], [48.68869, 46.06663], [48.72829, 46.01935], [48.64909, 45.96363], [48.75349, 45.96532], [48.74269, 45.91466], [48.79309, 45.84036], [48.76429, 45.85218], [48.72109, 45.83868], [48.71749, 45.81335], [48.68509, 45.84881], [48.71029, 45.88258], [48.63109, 45.9096], [48.59509, 45.95856], [48.55549, 45.96701], [48.50869, 45.93999], [48.46548, 45.93999], [48.39348, 45.86738], [48.35748, 45.86907], [48.36108, 45.85725], [48.40788, 45.85218], [48.40068, 45.8353], [48.28908, 45.83699], [48.27828, 45.78633], [48.22068, 45.76438], [48.24228, 45.71034], [48.14868, 45.74412], [48.13428, 45.72385], [48.08028, 45.75087], [48.00828, 45.70021], [47.96868, 45.7323], [47.89668, 45.69346], [47.86068, 45.72385], [47.83548, 45.65969], [47.85348, 45.6428], [47.81748, 45.60734], [47.75268, 45.69008], [47.70588, 45.71034], [47.66988, 45.70528], [47.63388, 45.75087], [47.55828, 45.77113], [47.55468, 45.74412], [47.59068, 45.74412], [47.62668, 45.70866], [47.60868, 45.63942], [47.66268, 45.62254], [47.64468, 45.59214], [47.65188, 45.55837], [47.62668, 45.55837], [47.58708, 45.62591], [47.54028, 45.66644], [47.48267, 45.66813], [47.43227, 45.69515], [47.45387, 45.7171], [47.50428, 45.7171], [47.38547, 45.75087], [47.38187, 45.73398], [47.42867, 45.67657], [47.55108, 45.6276], [47.57268, 45.55837], [47.54388, 45.53642], [47.50788, 45.57188], [47.50788, 45.59383], [47.49347, 45.58539], [47.53668, 45.50771], [47.50068, 45.4807], [47.49707, 45.43004], [47.38187, 45.41147], [47.46107, 45.3912], [47.42507, 45.36419], [47.38547, 45.30002], [47.37107, 45.1852], [47.31347, 45.19702], [47.29547, 45.18688], [47.20187, 44.97075], [47.16587, 44.96737], [47.14427, 44.92853], [47.11187, 44.95893], [47.09747, 44.95555], [47.11187, 44.86943], [47.07947, 44.785], [47.02187, 44.84242], [47.00387, 44.92178], [46.98227, 44.89307], [47.01107, 44.83059], [46.96067, 44.76474], [46.92467, 44.77149], [46.86707, 44.7411], [46.83107, 44.6972], [46.79147, 44.70564], [46.74467, 44.65329], [46.72307, 44.65498], [46.70867, 44.57055], [46.72307, 44.55029], [46.67987, 44.52834], [46.71227, 44.43209], [46.77347, 44.39494], [46.85267, 44.39832], [47.02547, 44.35948], [47.07947, 44.26492], [47.12267, 44.22271], [47.18027, 44.20244], [47.22347, 44.23115], [47.26667, 44.16867], [47.28827, 44.09269], [47.34947, 44.0319], [47.43227, 43.87655], [47.46107, 43.85966], [47.44307, 43.81914], [47.48987, 43.81576], [47.50428, 43.77017], [47.45747, 43.75497], [47.43227, 43.71613], [47.45027, 43.68236], [47.39267, 43.60638], [47.36747, 43.61989], [47.37827, 43.5591], [47.40347, 43.5439], [47.40347, 43.51182], [47.42507, 43.50337], [47.45027, 43.51857], [47.46467, 43.55234], [47.47907, 43.64353], [47.50788, 43.68574], [47.50428, 43.71445], [47.55468, 43.87824], [47.59428, 43.90188], [47.70228, 43.87486], [47.64468, 43.82927], [47.60148, 43.7651], [47.48987, 43.46285], [47.49347, 43.29568], [47.56908, 43.33452], [47.58708, 43.29906], [47.48627, 43.21294], [47.48267, 43.12682], [47.45387, 43.08123], [47.46107, 43.02044], [47.52948, 42.96134], [47.59068, 42.94277], [47.60508, 42.91744], [47.70228, 42.86171], [47.72748, 42.66246], [47.86788, 42.58479], [47.99388, 42.41931], [48.09468, 42.35007], [48.22068, 42.17446], [48.30348, 42.10354], [48.38628, 41.93637], [48.41508, 41.91442], [48.55189, 41.87558], [48.57709, 41.84519], [48.65629, 41.80129], [48.79309, 41.66789], [48.79669, 41.64256], [48.86509, 41.58515], [48.90469, 41.52267], [48.94069, 41.5041], [48.99469, 41.43993], [49.02709, 41.43149], [49.13509, 41.27445], [49.16029, 41.14781], [49.19629, 41.05662], [49.24309, 40.99752], [49.40149, 40.85231], [49.46989, 40.83542], [49.5383, 40.78814], [49.5095, 40.70878], [49.5383, 40.65474], [49.5887, 40.62435], [49.6535, 40.61928], [49.7255, 40.58045], [49.8155, 40.56525], [49.9379, 40.5872], [50.0531, 40.58382], [50.1107, 40.52641], [50.2367, 40.49602], [50.2763, 40.43692], [50.3375, 40.40652], [50.3591, 40.366], [50.3879, 40.22078], [50.3231, 40.29677], [50.2295, 40.34236], [50.1287, 40.35924], [49.9847, 40.32378], [49.9559, 40.3508], [49.8947, 40.36937], [49.8407, 40.33729], [49.8479, 40.31365], [49.8191, 40.2917], [49.5779, 40.2174], [49.5023, 40.16506], [49.49509, 40.09414], [49.44109, 40.07894], [49.43389, 40.06374], [49.43389, 40.04348], [49.48429, 39.98944], [49.42309, 39.93541], [49.44469, 39.87293], [49.41589, 39.84423], [49.42309, 39.81045], [49.39429, 39.78175], [49.42309, 39.70914], [49.33669, 39.64666], [49.28629, 39.52171], [49.29709, 39.47612], [49.40869, 39.38662], [49.39789, 39.34441], [49.40869, 39.32414], [49.36549, 39.35116], [49.40869, 39.28868], [49.30789, 39.3461], [49.24669, 39.31064], [49.23949, 39.1688], [49.20349, 39.03371], [49.11709, 38.97461], [49.07749, 38.96279], [49.05229, 38.98136], [49.05589, 39.00669], [49.12429, 39.02864], [49.14949, 39.08268], [49.11709, 39.1097], [49.07029, 39.11138], [49.05949, 39.17217], [49.02349, 39.18906], [48.96589, 39.18399], [48.94789, 39.12827], [48.93349, 39.12489], [48.94789, 39.00669], [48.89749, 38.89018], [48.86869, 38.86316], [48.83269, 38.87161], [48.83269, 38.83615], [48.86149, 38.75678], [48.87589, 38.24346], [48.94789, 37.96653], [48.94429, 37.90405], [48.98749, 37.84326], [48.99469, 37.77741], [49.06669, 37.67947], [49.13149, 37.62375], [49.36549, 37.51568], [49.8263, 37.4532], [49.9343, 37.47515], [49.9703, 37.45996], [49.9343, 37.4532], [50.1971, 37.38903], [50.2259, 37.36539], [50.2223, 37.32993], [50.2907, 37.19316], [50.3555, 37.12731], [50.4311, 37.0834], [50.4779, 37.03443], [50.65791, 36.95507], [50.70471, 36.91792], [51.00351, 36.76764], [51.08991, 36.73724], [51.91072, 36.5819], [52.09432, 36.60216], [52.25992, 36.65113], [52.77833, 36.74062], [53.44793, 36.88246], [53.88714, 36.9061], [53.95914, 36.91961], [54.00594, 36.95338], [54.00594, 36.91454], [53.94834, 36.89935], [53.81874, 36.87571], [53.60994, 36.8774], [53.66394, 36.86389], [53.63514, 36.85713], [53.69994, 36.81661], [53.89074, 36.79297], [54.02754, 36.82843], [54.03474, 36.94832], [54.02754, 36.96689], [53.99514, 36.97871], [54.02034, 37.02768], [53.99514, 37.05807], [53.92674, 37.24382], [53.89074, 37.50892], [53.82594, 37.74532], [53.80794, 38.03238], [53.85834, 38.20631], [53.86914, 38.30762], [53.82594, 38.52545], [53.83674, 38.6065], [53.86194, 38.67911], [53.92674, 38.77367], [53.91594, 38.80406], [53.98434, 38.91551], [53.89074, 38.98136], [53.87274, 39.02864], [53.79714, 39.04215], [53.76834, 39.03033], [53.72154, 39.11138], [53.71074, 39.10463], [53.73234, 39.05735], [53.69994, 39.0793], [53.69634, 39.15191], [53.73234, 39.17217], [53.70354, 39.17555], [53.72514, 39.2414], [53.66034, 39.20088], [53.67474, 39.19412], [53.68554, 39.08268], [53.63514, 39.1384], [53.62434, 39.19244], [53.60274, 39.19412], [53.60994, 39.23634], [53.59194, 39.23465], [53.56674, 39.19412], [53.58834, 39.30388], [53.55954, 39.28193], [53.58114, 39.3309], [53.55234, 39.32414], [53.56314, 39.35285], [53.53434, 39.3309], [53.45153, 39.31739], [53.43713, 39.33765], [53.40473, 39.31064], [53.39033, 39.31064], [53.40473, 39.33765], [53.36153, 39.3309], [53.34713, 39.34441], [53.29313, 39.3309], [53.29673, 39.34947], [53.23913, 39.36467], [53.14913, 39.34441], [53.19953, 39.32414], [53.17073, 39.2718], [53.18153, 39.18906], [53.15993, 39.17893], [53.13833, 39.32077], [53.08433, 39.40013], [53.16713, 39.49638], [53.21393, 39.59432], [53.27513, 39.66524], [53.31473, 39.65848], [53.24273, 39.59938], [53.21033, 39.55041], [53.21753, 39.52509], [53.42633, 39.53522], [53.44793, 39.53015], [53.47673, 39.48794], [53.56674, 39.46767], [53.58114, 39.47781], [53.55954, 39.50145], [53.57394, 39.52677], [53.61714, 39.49469], [53.68554, 39.52171], [53.72514, 39.5082], [53.73594, 39.51833], [53.71074, 39.54366], [53.62794, 39.57068], [53.65674, 39.59263], [53.63154, 39.61796], [53.57034, 39.61627], [53.56314, 39.65342], [53.53434, 39.68043], [53.53794, 39.63147], [53.49833, 39.67706], [53.44433, 39.7007], [53.45873, 39.67368], [53.42993, 39.68719], [53.42993, 39.66693], [53.45153, 39.63147], [53.41553, 39.65004], [53.42993, 39.76317], [53.40473, 39.75642], [53.38313, 39.76993], [53.41553, 39.78175], [53.49833, 39.86618], [53.48393, 39.88475], [53.53794, 39.89657], [53.52714, 39.91346], [53.57394, 39.96749], [53.49113, 39.97425], [53.40113, 40.00633], [53.28233, 39.94048], [53.17073, 39.99789], [53.12753, 39.97425], [53.05193, 39.96749], [53.08073, 39.99451], [53.01233, 39.97762], [52.94393, 39.981], [52.91513, 40.02153], [52.89713, 39.99789], [52.91873, 39.96412], [52.92953, 39.89657], [53.05193, 39.76993], [53.00513, 39.78344], [53.04113, 39.74122], [52.99433, 39.78006], [52.96553, 39.83241], [52.90433, 39.87462], [52.88273, 39.94554], [52.73873, 40.05361], [52.76753, 40.15324], [52.69913, 40.27312], [52.70273, 40.31196], [52.74953, 40.51797], [52.86473, 40.65812], [52.86833, 40.69358], [52.83233, 40.7054], [52.82873, 40.7206], [52.83233, 40.74593], [52.87193, 40.7645], [52.86113, 40.78983], [52.92233, 40.9418], [52.91513, 41.08533], [52.96193, 41.06169], [52.95833, 41.0161], [53.01233, 40.95531], [53.04113, 40.88608], [53.07353, 40.86582], [53.12033, 40.87257], [53.06633, 40.84386], [53.12033, 40.76957], [53.18153, 40.76788], [53.26433, 40.81685], [53.24633, 40.77463], [53.32913, 40.77632], [53.36873, 40.83542], [53.38313, 40.83204], [53.37593, 40.79827], [53.39753, 40.76281], [53.48393, 40.73748], [53.55594, 40.77294], [53.56314, 40.85231], [53.58834, 40.89114], [53.62434, 40.88777], [53.65674, 40.86582], [53.64954, 40.84555], [53.67114, 40.81009], [53.64954, 40.78308], [53.67474, 40.72566], [53.72514, 40.68851], [53.70354, 40.64968], [53.72154, 40.62604], [53.86194, 40.62604], [53.94834, 40.67332], [54.00954, 40.65812], [54.08874, 40.68176], [54.09594, 40.69865], [54.05274, 40.71553], [54.17154, 40.72904], [54.23274, 40.72904], [54.21834, 40.6902], [54.25434, 40.67669], [54.40194, 40.67332], [54.36234, 40.68851], [54.43074, 40.7206], [54.31914, 40.72229], [54.26514, 40.84893], [54.27234, 40.87257], [54.24714, 40.87426], [54.24714, 40.88608], [54.32994, 40.9266], [54.46674, 40.86582], [54.43794, 40.81685], [54.47394, 40.81009], [54.63955, 40.8388], [54.70795, 40.88439], [54.75835, 40.96544], [54.67915, 41.07013], [54.76915, 41.03636], [54.71875, 41.08026], [54.73315, 41.09884], [54.71515, 41.11572], [54.63595, 41.13261], [54.63595, 41.16301], [54.59995, 41.19171]]]}}